OBJECT_NAME,OBJECT_ID,EPOCH,MEAN_MOTION,ECCENTRICITY,INCLINATION,RA_OF_ASC_NODE,ARG_OF_PERICENTER,MEAN_ANOMALY,EPHEMERIS_TYPE,CLASSIFICATION_TYPE,NORAD_CAT_ID,ELEMENT_SET_NO,REV_AT_EPOCH,BSTAR,MEAN_MOTION_DOT,MEAN_MOTION_DDOT
QIANFAN-5,2024-140E,2026-07-20T04:53:14.074368,13.51011570,.00129126,88.9707,276.4575,300.4328,59.5547,0,U,60383,999,9693,.12260794E-3,.91E-6,0
QIANFAN-6,2024-140F,2026-07-20T05:22:44.539104,13.51019692,.00107534,88.9734,276.2611,282.3339,77.6609,0,U,60384,999,9713,.95585144E-4,.74E-6,0
QIANFAN-7,2024-140G,2026-07-20T05:55:48.641664,14.27867317,.00165155,88.9762,267.8906,46.7934,313.4637,0,U,60385,999,10171,.10435071E-3,.273E-5,0
QIANFAN-8,2024-140H,2026-07-20T05:34:41.068128,13.51016092,.00142132,88.9735,276.5004,284.7055,75.2521,0,U,60386,999,9698,.12844677E-3,.95E-6,0
QIANFAN-9,2024-140J,2026-07-20T04:58:58.184832,13.51021806,.0013904,88.9733,276.5739,284.5154,75.4455,0,U,60387,999,9696,.12742027E-3,.94E-6,0
QIANFAN-10,2024-140K,2026-07-20T05:04:54.302304,13.51022994,.00124868,88.9744,275.9436,257.7019,102.2735,0,U,60388,999,9709,.10237544E-3,.78E-6,0
QIANFAN-11,2024-140L,2026-07-20T05:58:19.794144,13.51016819,.00119376,88.9669,276.3618,284.2366,75.7459,0,U,60389,999,9675,.93891299E-4,.73E-6,0
QIANFAN-12,2024-140M,2026-07-20T06:28:02.257248,13.51019013,.00108181,88.9712,276.4986,294.1895,65.8125,0,U,60390,999,9688,.10973568E-3,.83E-6,0
QIANFAN-13,2024-140N,2026-07-20T05:46:30.210816,13.51019127,.00106704,88.9724,276.6281,297.5591,62.4476,0,U,60391,999,9690,.12381627E-3,.92E-6,0
QIANFAN-14,2024-140P,2026-07-20T06:22:11.511264,13.51012655,.00143496,88.9703,276.4767,296.4787,63.4892,0,U,60392,999,9691,.11312282E-3,.85E-6,0
QIANFAN-15,2024-140Q,2026-07-20T04:47:18.028608,13.51013046,.00100532,88.9727,276.4923,280.8851,79.1169,0,U,60393,999,9689,.11157613E-3,.84E-6,0
QIANFAN-16,2024-140R,2026-07-20T06:16:10.569216,13.51021031,.00123578,88.9729,276.6122,301.5714,58.4230,0,U,60394,999,9681,.90728401E-4,.71E-6,0
QIANFAN-17,2024-140S,2026-07-20T06:10:11.445024,13.51017024,.00126619,88.9740,276.6826,294.0369,65.9457,0,U,60395,999,9777,.98231002E-4,.75E-6,0
QIANFAN-18,2024-140T,2026-07-20T05:40:32.175264,13.51016477,.00119257,88.9734,276.2037,273.4861,86.4926,0,U,60396,999,9716,.10421326E-3,.79E-6,0
STARLINK-11228 [DTC],2024-141A,2026-07-20T03:04:16.739328,15.69706092,.00009728,53.1590,153.4042,92.1280,267.9849,0,U,60398,999,11249,.3875553E-5,-.119E-5,0
STARLINK-11182 [DTC],2024-141B,2026-07-20T05:46:27.145344,15.69710558,.00012034,53.1602,152.6787,109.4306,250.6842,0,U,60399,999,11256,-.1973366E-5,-.828E-5,0
STARLINK-11234 [DTC],2024-141C,2026-07-20T02:36:01.248192,15.69707133,.00012465,53.1603,153.2736,103.6232,256.4925,0,U,60400,999,11249,.496664E-5,.13E-6,0
STARLINK-11232 [DTC],2024-141D,2026-07-20T07:04:00.255360,15.69716360,.00010922,53.1597,152.2992,90.7767,269.3376,0,U,60401,999,11257,.8719366E-5,.468E-5,0
STARLINK-11139 [DTC],2024-141E,2026-07-20T02:21:53.522496,15.69711590,.0000921,53.1600,153.2143,96.4676,263.6447,0,U,60402,999,11254,-.1654205E-5,-.789E-5,0
STARLINK-11158 [DTC],2024-141F,2026-07-20T06:50:01.563648,15.69707805,.00010729,53.1587,152.9665,105.8898,254.2238,0,U,60403,999,11251,.6926201E-5,.251E-5,0
STARLINK-11199 [DTC],2024-141G,2026-07-20T06:42:57.983328,15.69705249,.00010942,53.1600,152.9334,89.9819,270.1324,0,U,60404,999,11256,-.1204136E-5,-.734E-5,0
STARLINK-11081 [DTC],2024-141H,2026-07-20T06:35:53.697120,15.69711245,.00011115,53.1600,152.9032,88.4101,271.7044,0,U,60405,999,11251,.4679734E-5,-.22E-6,0
STARLINK-11150 [DTC],2024-141J,2026-07-20T06:28:49.998432,15.69709509,.00010735,53.1595,152.8703,76.2402,283.8735,0,U,60406,999,11256,.4013417E-5,-.102E-5,0
STARLINK-11136 [DTC],2024-141K,2026-07-20T03:18:24.189408,15.69711573,.00004353,53.1597,153.4659,47.0351,313.0703,0,U,60407,999,11249,-.4479355E-5,-.113E-4,0
STARLINK-11196 [DTC],2024-141L,2026-07-20T03:11:20.351616,15.69706803,.00012021,53.1599,153.4320,107.4498,252.6651,0,U,60408,999,11254,.6471224E-5,.195E-5,0
STARLINK-11174 [DTC],2024-141M,2026-07-20T02:57:12.720096,15.69706832,.00010027,53.1590,153.3664,83.3633,276.7499,0,U,60409,999,11249,.5562894E-5,.85E-6,0
STARLINK-11191 [DTC],2024-141N,2026-07-20T05:53:30.828480,15.69711583,.00010398,53.1597,152.7078,84.0304,276.0832,0,U,60410,999,11256,.9768256E-5,.595E-5,0
STARLINK-32244,2024-141P,2026-07-19T18:47:00.803616,15.31699987,.00013083,53.1613,348.3914,93.6178,266.4973,0,U,60411,999,10981,.16285023E-4,.14E-5,0
STARLINK-32186,2024-141Q,2026-07-19T18:04:37.070976,15.34399077,.00009298,53.1615,346.7947,84.9433,275.1675,0,U,60412,999,10977,.31137478E-4,.676E-5,0
STARLINK-32178,2024-141R,2026-07-19T16:18:42.753600,15.34390955,.00012416,53.1614,347.0430,97.3913,262.7231,0,U,60413,999,10976,-.46783E-6,-.392E-5,0
STARLINK-32234,2024-141S,2026-07-19T20:07:31.224576,15.31721361,.00016557,53.1607,348.0265,73.6424,286.4759,0,U,60414,999,10982,-.77574393E-4,-.2773E-4,0
STARLINK-32265,2024-141T,2026-07-19T19:35:23.059968,15.34397098,.00011411,53.1614,346.4751,90.6740,269.4393,0,U,60415,999,10984,.40409691E-4,.989E-5,0
STARLINK-32197,2024-141U,2026-07-20T02:26:42.534816,15.31697946,.00009038,53.1612,336.8660,106.3645,253.7456,0,U,60416,999,10994,-.249034E-6,-.373E-5,0
STARLINK-32255,2024-141V,2026-07-20T02:26:56.522112,15.34389077,.00012843,53.1599,345.4132,86.5931,273.5219,0,U,60417,999,10988,.29901483E-4,.634E-5,0
STARLINK-32236,2024-141W,2026-07-20T02:29:57.839424,15.34392109,.00013059,53.1620,345.4256,92.5959,267.5193,0,U,60418,999,10988,.4316253E-4,.1082E-4,0
CAPELLA-13 (ACADIA-3),2024-142A,2026-07-20T05:17:04.331328,14.87651062,.00013391,53.0044,273.3792,89.9473,270.1661,0,U,60419,999,10532,.23373774E-3,.1911E-4,0
ASBM-1,2024-143A,2026-07-02T18:51:56.934432,1.50426492,.56144649,62.8694,44.8641,269.3377,29.5572,0,U,60422,999,1185,0,-.9E-6,0
ASBM-2,2024-143B,2026-07-19T01:46:18.712416,1.50426390,.56160383,62.8491,44.2972,269.4231,29.5024,0,U,60423,999,1208,0,-.136E-5,0
STARLINK-32250,2024-144A,2026-07-19T18:12:40.865184,15.34390815,.00012009,53.1593,322.6932,100.2843,259.8296,0,U,60425,999,10864,.21548406E-4,.352E-5,0
STARLINK-32226,2024-144B,2026-07-19T18:21:45.910944,15.34394614,.00008387,53.1573,322.7298,93.0302,267.0797,0,U,60426,999,10954,.51115813E-4,.1351E-4,0
STARLINK-32254,2024-144C,2026-07-19T11:54:28.360512,15.34388396,.00008978,53.1573,323.8941,87.4669,272.6436,0,U,60427,999,10954,.19787941E-4,.292E-5,0
STARLINK-32193,2024-144D,2026-07-19T09:08:05.609472,15.34387871,.00009195,53.1593,324.5950,100.2476,259.8630,0,U,60428,999,10952,.5168821E-4,.137E-4,0
STARLINK-32242,2024-144E,2026-07-20T07:31:32.205216,15.34377865,.00011182,53.1608,320.4623,90.6164,269.4967,0,U,60429,999,10966,-.37263403E-4,-.1634E-4,0
STARLINK-32196,2024-144F,2026-07-19T18:05:55.767552,15.34407565,.00010682,53.1594,321.2413,85.7980,274.3145,0,U,60430,999,10956,-.540419E-5,-.559E-5,0
STARLINK-32232,2024-144G,2026-07-19T18:39:57.355488,15.34389318,.00023154,53.1600,322.8097,67.4078,292.7170,0,U,60431,999,10954,.15300006E-4,.14E-5,0
STARLINK-32246,2024-144H,2026-07-19T12:03:33.343200,15.34395562,.00013161,53.1594,323.9320,93.2674,266.8479,0,U,60432,999,10950,.36370817E-4,.853E-5,0
STARLINK-32183,2024-144J,2026-07-20T00:43:00.906240,15.34389921,.00008018,53.1597,321.5342,74.5513,285.5578,0,U,60433,999,10958,.1501647E-4,.131E-5,0
STARLINK-32233,2024-144K,2026-07-19T15:04:24.669120,15.34391374,.0000872,53.1591,321.8763,85.9721,274.1381,0,U,60434,999,10954,.51157E-4,.1352E-4,0
STARLINK-32222,2024-144L,2026-07-19T17:53:48.889536,15.34396926,.00013165,53.1606,321.1865,83.3004,276.8149,0,U,60435,999,10956,.54858046E-4,.1477E-4,0
STARLINK-32229,2024-144M,2026-07-20T01:33:42.934464,15.34385710,.00010481,53.1596,319.6252,93.6248,266.4875,0,U,60436,999,10961,.12367269E-4,.42E-6,0
STARLINK-32241,2024-144N,2026-07-19T15:13:30.300672,15.34391365,.000142,53.1635,321.9175,92.9966,267.1199,0,U,60437,999,10954,.42462E-5,-.233E-5,0
STARLINK-32240,2024-144P,2026-07-20T07:45:52.007040,15.34386728,.00011444,53.1581,318.3964,86.8169,273.2964,0,U,60438,999,10969,.2611461E-4,.506E-5,0
STARLINK-32231,2024-144Q,2026-07-19T18:08:59.982720,15.34339513,.00015242,53.1597,321.2521,96.1213,263.9963,0,U,60439,999,10866,.42360555E-3,.13935E-3,0
STARLINK-32195,2024-144R,2026-07-20T07:39:48.542112,15.34385201,.00014805,53.1590,318.3683,88.4576,271.6596,0,U,60440,999,10965,.7196084E-5,-.133E-5,0
STARLINK-32177,2024-144S,2026-07-20T07:27:41.556096,15.34386182,.00015608,53.1593,318.3147,87.0223,273.0958,0,U,60441,999,10965,.11466551E-4,.11E-6,0
STARLINK-32252,2024-144T,2026-07-19T17:38:40.305408,15.34389902,.00011569,53.1607,321.1207,92.0176,268.0959,0,U,60442,999,10960,.30980957E-4,.67E-5,0
STARLINK-32237,2024-144U,2026-07-19T12:02:53.304576,15.34389293,.00012515,53.1602,322.5076,90.1354,269.9792,0,U,60443,999,10952,.61274087E-4,.1694E-4,0
STARLINK-32249,2024-144V,2026-07-19T17:56:50.478144,15.34397395,.00004765,53.1593,321.1965,85.2732,274.8325,0,U,60444,999,10960,.25022758E-4,.47E-5,0
STARLINK-32228,2024-144W,2026-07-19T17:11:24.559008,15.34387517,.00010635,53.1588,321.0017,90.9372,269.1752,0,U,60445,999,10960,.15218778E-4,.138E-5,0
STARLINK-32247,2024-144X,2026-07-19T16:50:33.180288,15.34552300,.00011893,53.1590,312.9565,67.6593,292.4536,0,U,60446,999,10971,.27628455E-3,.9014E-4,0
STARLINK-32101,2024-144Y,2026-07-20T07:21:38.314944,15.34392004,.00012804,53.1596,318.2885,91.6316,268.4833,0,U,60447,999,10965,.35296489E-4,.816E-5,0
LEGION 3,2024-146A,2026-07-20T05:07:54.620832,15.15671515,.00077191,45.0013,213.4878,1.5851,358.5051,0,U,60452,999,10703,.8091718E-4,.1302E-4,0
LEGION 4,2024-146B,2026-07-20T06:42:18.196128,15.15701517,.00092804,45.0022,305.0037,145.0618,215.0871,0,U,60453,999,10589,.12085266E-3,.2078E-4,0
EOS-08,2024-147A,2026-07-20T06:30:50.508288,15.50948979,.00051739,37.3797,207.2266,205.9355,154.1152,0,U,60454,999,10821,.24455067E-3,.14477E-3,0
